start=new Date('2022-06-19T00:00:00.000Z').valueOf();
sats=[{"TLE_LINE2":"2 49765  53.2199 138.1861 0002792  51.5171 308.6071 15.08834676 29903","APOAPSIS":"541.693","MEAN_ELEMENT_THEORY":"SGP4","CENTER_NAME":"EARTH","SITE":"AFETR","NORAD_CAT_ID":"49765","MEAN_MOTION_DOT":"-0.00001130","RA_OF_ASC_NODE":"138.1861","PERIAPSIS":"537.830","SEMIMAJOR_AXIS":"6917.897","ECCENTRICITY":"0.00027920","GP_ID":"206238134","MEAN_MOTION_DDOT":"0.0000000000000","RCS_SIZE":"LARGE","OBJECT_ID":"2021-115AT","TIME_SYSTEM":"UTC","LAUNCH_DATE":"2021-12-02","PERIOD":"95.438","MEAN_MOTION":"15.08834676","CLASSIFICATION_TYPE":"U","BSTAR":"-0.00005288100000","DECAY_DATE":null,"EPHEMERIS_TYPE":"0","FILE":"3496999","OBJECT_TYPE":"PAYLOAD","REV_AT_EPOCH":"2990","REF_FRAME":"TEME","TLE_LINE1":"1 49765U 21115AT  22166.61728674 -.00001130  00000-0 -52881-4 0  9994","COUNTRY_CODE":"US","INCLINATION":"53.2199","EPOCH":"2022-06-15T14:48:53.574336","OBJECT_NAME":"STARLINK-3227","MEAN_ANOMALY":"308.6071","ELEMENT_SET_NO":"999","ARG_OF_PERICENTER":"51.5171"},{"INCLINATION":"53.2197","COUNTRY_CODE":"US","EPOCH":"2022-06-15T21:31:37.280928","OBJECT_NAME":"STARLINK-3190","ELEMENT_SET_NO":"999","MEAN_ANOMALY":"312.5376","ARG_OF_PERICENTER":"47.5859","OBJECT_TYPE":"PAYLOAD","FILE":"3497002","EPHEMERIS_TYPE":"0","DECAY_DATE":null,"REV_AT_EPOCH":"2994","REF_FRAME":"TEME","TLE_LINE1":"1 49766U 21115AU  22166.89695927 -.00000862  00000-0 -36003-4 0  9998","MEAN_MOTION_DDOT":"0.0000000000000","GP_ID":"206290137","RCS_SIZE":"LARGE","ECCENTRICITY":"0.00028770","OBJECT_ID":"2021-115AU","PERIOD":"95.437","LAUNCH_DATE":"2021-12-02","TIME_SYSTEM":"UTC","CLASSIFICATION_TYPE":"U","BSTAR":"-0.00003600300000","MEAN_MOTION":"15.08843827","CENTER_NAME":"EARTH","MEAN_ELEMENT_THEORY":"SGP4","APOAPSIS":"541.724","TLE_LINE2":"2 49766  53.2197 136.9422 0002877  47.5859 312.5376 15.08843827 29947","NORAD_CAT_ID":"49766","SITE":"AFETR","RA_OF_ASC_NODE":"136.9422","MEAN_MOTION_DOT":"-0.00000862","SEMIMAJOR_AXIS":"6917.869","PERIAPSIS":"537.743"},{"SEMIMAJOR_AXIS":"6917.885","PERIAPSIS":"537.956","RA_OF_ASC_NODE":"136.6795","MEAN_MOTION_DOT":"0.00000551","NORAD_CAT_ID":"49767","SITE":"AFETR","APOAPSIS":"541.544","CENTER_NAME":"EARTH","MEAN_ELEMENT_THEORY":"SGP4","TLE_LINE2":"2 49767  53.2202 136.6795 0002593  52.0899 308.0327 15.08838525 29951","CLASSIFICATION_TYPE":"U","BSTAR":"0.00005276600000","MEAN_MOTION":"15.08838525","LAUNCH_DATE":"2021-12-02","PERIOD":"95.438","TIME_SYSTEM":"UTC","OBJECT_ID":"2021-115AV","MEAN_MOTION_DDOT":"0.0000000000000","GP_ID":"206290885","RCS_SIZE":"LARGE","ECCENTRICITY":"0.00025930","TLE_LINE1":"1 49767U 21115AV  22166.95584071  .00000551  00000-0  52766-4 0  9990","REF_FRAME":"TEME","REV_AT_EPOCH":"2995","OBJECT_TYPE":"PAYLOAD","DECAY_DATE":null,"FILE":"3497002","EPHEMERIS_TYPE":"0","ARG_OF_PERICENTER":"52.0899","ELEMENT_SET_NO":"999","MEAN_ANOMALY":"308.0327","OBJECT_NAME":"STARLINK-3192","EPOCH":"2022-06-15T22:56:24.637344","INCLINATION":"53.2202","COUNTRY_CODE":"US"},{"ELEMENT_SET_NO":"999","MEAN_ANOMALY":"304.8176","ARG_OF_PERICENTER":"55.3034","INCLINATION":"53.2165","COUNTRY_CODE":"US","OBJECT_NAME":"STARLINK-3196","EPOCH":"2022-06-15T15:20:41.601696","REF_FRAME":"TEME","TLE_LINE1":"1 49768U 21115AW  22166.63937039  .00000123  00000-0  25828-4 0  9996","OBJECT_TYPE":"PAYLOAD","DECAY_DATE":null,"FILE":"3496999","EPHEMERIS_TYPE":"0","REV_AT_EPOCH":"2990","LAUNCH_DATE":"2021-12-02","PERIOD":"95.437","TIME_SYSTEM":"UTC","CLASSIFICATION_TYPE":"U","BSTAR":"0.00002582800000","MEAN_MOTION":"15.08843298","GP_ID":"206239886","RCS_SIZE":"LARGE","MEAN_MOTION_DDOT":"0.0000000000000","ECCENTRICITY":"0.00023140","OBJECT_ID":"2021-115AW","RA_OF_ASC_NODE":"138.0951","MEAN_MOTION_DOT":"0.00000123","SEMIMAJOR_AXIS":"6917.870","PERIAPSIS":"538.135","APOAPSIS":"541.336","MEAN_ELEMENT_THEORY":"SGP4","CENTER_NAME":"EARTH","TLE_LINE2":"2 49768  53.2165 138.0951 0002314  55.3034 304.8176 15.08843298 29902","SITE":"AFETR","NORAD_CAT_ID":"49768"},{"DECAY_DATE":null,"EPHEMERIS_TYPE":"0","FILE":"3496999","OBJECT_TYPE":"PAYLOAD","REV_AT_EPOCH":"2990","REF_FRAME":"TEME","TLE_LINE1":"1 49769U 21115AX  22166.63568391 -.00000865  00000-0 -36226-4 0  9997","COUNTRY_CODE":"US","INCLINATION":"53.2196","OBJECT_NAME":"STARLINK-3208","EPOCH":"2022-06-15T15:15:23.089824","MEAN_ANOMALY":"308.3105","ELEMENT_SET_NO":"999","ARG_OF_PERICENTER":"51.8174","TLE_LINE2":"2 49769  53.2196 138.1174 0003187  51.8174 308.3105 15.08840023 29904","APOAPSIS":"541.950","MEAN_ELEMENT_THEORY":"SGP4","CENTER_NAME":"EARTH","SITE":"AFETR","NORAD_CAT_ID":"49769","MEAN_MOTION_DOT":"-0.00000865","RA_OF_ASC_NODE":"138.1174","PERIAPSIS":"537.541","SEMIMAJOR_AXIS":"6917.880","ECCENTRICITY":"0.00031870","MEAN_MOTION_DDOT":"0.0000000000000","GP_ID":"206238634","RCS_SIZE":"LARGE","OBJECT_ID":"2021-115AX","TIME_SYSTEM":"UTC","LAUNCH_DATE":"2021-12-02","PERIOD":"95.438","MEAN_MOTION":"15.08840023","CLASSIFICATION_TYPE":"U","BSTAR":"-0.00003622600000"},{"PERIOD":"95.438","LAUNCH_DATE":"2021-12-02","TIME_SYSTEM":"UTC","CLASSIFICATION_TYPE":"U","BSTAR":"-0.00006019200000","MEAN_MOTION":"15.08836683","GP_ID":"206238884","MEAN_MOTION_DDOT":"0.0000000000000","RCS_SIZE":"LARGE","ECCENTRICITY":"0.00028600","OBJECT_ID":"2021-115AY","RA_OF_ASC_NODE":"138.0886","MEAN_MOTION_DOT":"-0.00001246","SEMIMAJOR_AXIS":"6917.891","PERIAPSIS":"537.777","APOAPSIS":"541.734","CENTER_NAME":"EARTH","MEAN_ELEMENT_THEORY":"SGP4","TLE_LINE2":"2 49770  53.2181 138.0886 0002860  42.5580 317.5633 15.08836683 31025","SITE":"AFETR","NORAD_CAT_ID":"49770","ELEMENT_SET_NO":"999","MEAN_ANOMALY":"317.5633","ARG_OF_PERICENTER":"42.5580","INCLINATION":"53.2181","COUNTRY_CODE":"US","OBJECT_NAME":"STARLINK-3191","EPOCH":"2022-06-15T15:25:58.885824","REF_FRAME":"TEME","TLE_LINE1":"1 49770U 21115AY  22166.64304266 -.00001246  00000-0 -60192-4 0  9992","OBJECT_TYPE":"PAYLOAD","DECAY_DATE":null,"FILE":"3496999","EPHEMERIS_TYPE":"0","REV_AT_EPOCH":"3102"},{"BSTAR":"0.00002458100000","CLASSIFICATION_TYPE":"U","MEAN_MOTION":"15.08851289","LAUNCH_DATE":"2021-12-02","PERIOD":"95.437","TIME_SYSTEM":"UTC","OBJECT_ID":"2021-115AZ","RCS_SIZE":"LARGE","GP_ID":"206239136","MEAN_MOTION_DDOT":"0.0000000000000","ECCENTRICITY":"0.00026390","SEMIMAJOR_AXIS":"6917.846","PERIAPSIS":"537.885","RA_OF_ASC_NODE":"138.0614","MEAN_MOTION_DOT":"0.00000103","SITE":"AFETR","NORAD_CAT_ID":"49771","MEAN_ELEMENT_THEORY":"SGP4","CENTER_NAME":"EARTH","APOAPSIS":"541.537","TLE_LINE2":"2 49771  53.2150 138.0614 0002639  52.8599 307.2634 15.08851289 29909","ARG_OF_PERICENTER":"52.8599","ELEMENT_SET_NO":"999","MEAN_ANOMALY":"307.2634","EPOCH":"2022-06-15T15:31:16.989888","OBJECT_NAME":"STARLINK-3201","INCLINATION":"53.2150","COUNTRY_CODE":"US","TLE_LINE1":"1 49771U 21115AZ  22166.64672442  .00000103  00000-0  24581-4 0  9998","REF_FRAME":"TEME","REV_AT_EPOCH":"2990","OBJECT_TYPE":"PAYLOAD","FILE":"3496999","EPHEMERIS_TYPE":"0","DECAY_DATE":null},{"ELEMENT_SET_NO":"999","MEAN_ANOMALY":"324.5590","ARG_OF_PERICENTER":"35.5556","INCLINATION":"53.2184","COUNTRY_CODE":"US","OBJECT_NAME":"STARLINK-3317","EPOCH":"2022-06-15T22:16:43.778208","REF_FRAME":"TEME","TLE_LINE1":"1 50156U 21125A   22166.92828447 -.00001402  00000-0 -70009-4 0  9998","OBJECT_TYPE":"PAYLOAD","FILE":"3497002","EPHEMERIS_TYPE":"0","DECAY_DATE":null,"REV_AT_EPOCH":"3090","LAUNCH_DATE":"2021-12-18","PERIOD":"95.438","TIME_SYSTEM":"UTC","CLASSIFICATION_TYPE":"U","BSTAR":"-0.00007000900000","MEAN_MOTION":"15.08831478","GP_ID":"206290662","RCS_SIZE":"LARGE","MEAN_MOTION_DDOT":"0.0000000000000","ECCENTRICITY":"0.00023150","OBJECT_ID":"2021-125A","RA_OF_ASC_NODE":"246.7898","MEAN_MOTION_DOT":"-0.00001402","SEMIMAJOR_AXIS":"6917.906","PERIAPSIS":"538.170","CENTER_NAME":"EARTH","MEAN_ELEMENT_THEORY":"SGP4","APOAPSIS":"541.373","TLE_LINE2":"2 50156  53.2184 246.7898 0002315  35.5556 324.5590 15.08831478 30901","NORAD_CAT_ID":"50156","SITE":"AFWTR"},{"INCLINATION":"53.2157","COUNTRY_CODE":"US","EPOCH":"2022-06-15T22:51:06.160032","OBJECT_NAME":"STARLINK-3313","ELEMENT_SET_NO":"999","MEAN_ANOMALY":"325.8068","ARG_OF_PERICENTER":"34.3077","OBJECT_TYPE":"PAYLOAD","DECAY_DATE":null,"EPHEMERIS_TYPE":"0","FILE":"3497002","REV_AT_EPOCH":"3077","REF_FRAME":"TEME","TLE_LINE1":"1 50157U 21125B   22166.95215463 -.00000561  00000-0 -17158-4 0  9991","GP_ID":"206290409","RCS_SIZE":"LARGE","MEAN_MOTION_DDOT":"0.0000000000000","ECCENTRICITY":"0.00023760","OBJECT_ID":"2021-125B","LAUNCH_DATE":"2021-12-18","PERIOD":"95.437","TIME_SYSTEM":"UTC","CLASSIFICATION_TYPE":"U","BSTAR":"-0.00001715800000","MEAN_MOTION":"15.08843500","APOAPSIS":"541.378","MEAN_ELEMENT_THEORY":"SGP4","CENTER_NAME":"EARTH","TLE_LINE2":"2 50157  53.2157 256.6972 0002376  34.3077 325.8068 15.08843500 30775","NORAD_CAT_ID":"50157","SITE":"AFWTR","RA_OF_ASC_NODE":"256.6972","MEAN_MOTION_DOT":"-0.00000561","SEMIMAJOR_AXIS":"6917.870","PERIAPSIS":"538.091"},{"REV_AT_EPOCH":"3079","OBJECT_TYPE":"PAYLOAD","DECAY_DATE":null,"FILE":"3497002","EPHEMERIS_TYPE":"0","TLE_LINE1":"1 50158U 21125C   22166.94111900 -.00001240  00000-0 -59807-4 0  9994","REF_FRAME":"TEME","OBJECT_NAME":"STARLINK-3309","EPOCH":"2022-06-15T22:35:12.681600","INCLINATION":"53.2164","COUNTRY_CODE":"US","ARG_OF_PERICENTER":"30.8137","ELEMENT_SET_NO":"999","MEAN_ANOMALY":"329.2995","NORAD_CAT_ID":"50158","SITE":"AFWTR","APOAPSIS":"541.405","MEAN_ELEMENT_THEORY":"SGP4","CENTER_NAME":"EARTH","TLE_LINE2":"2 50158  53.2164 256.7504 0002377  30.8137 329.2995 15.08834879 30793","SEMIMAJOR_AXIS":"6917.896","PERIAPSIS":"538.117","RA_OF_ASC_NODE":"256.7504","MEAN_MOTION_DOT":"-0.00001240","OBJECT_ID":"2021-125C","GP_ID":"206289164","MEAN_MOTION_DDOT":"0.0000000000000","RCS_SIZE":"LARGE","ECCENTRICITY":"0.00023770","CLASSIFICATION_TYPE":"U","BSTAR":"-0.00005980700000","MEAN_MOTION":"15.08834879","LAUNCH_DATE":"2021-12-18","PERIOD":"95.438","TIME_SYSTEM":"UTC"}];
